ONEWEB-0558             
1 56059U 23043P   24212.42202170  .00000128  00000+0  27949-3 0  9990
2 56059  87.9290  20.6961 0001308  84.0537 276.0746 13.21821279 67512
ONEWEB-0559             
1 56060U 23043Q   24212.41097331  .00000138  00000+0  30273-3 0  9997
2 56060  87.9289  20.6957 0001748  72.7958 287.3367 13.21823987 67529
ONEWEB-0566             
1 56061U 23043R   24212.40467085  .00000080  00000+0  16277-3 0  9998
2 56061  87.9287  20.6973 0001201  79.7811 280.3458 13.21825539 67502
ONEWEB-0568             
1 56062U 23043S   24212.37840906  .00000030  00000+0  45254-4 0  9995
2 56062  87.9124   5.4996 0002045 102.6462 257.4897 13.16595602 68607
ONEWEB-0574             
1 56063U 23043T   24212.39836636  .00000093  00000+0  19456-3 0  9996
2 56063  87.9286  20.6924 0001724  95.5788 264.5543 13.21826096 67540
ONEWEB-0575             
1 56064U 23043U   24212.37207278  .00000055  00000+0  10924-3 0  9998
2 56064  87.9125   5.5108 0002403  92.1417 267.9989 13.16595636 68590
ONEWEB-0576             
1 56065U 23043V   24212.42907641  .00000128  00000+0  30083-3 0  9995
2 56065  87.9122   5.4960 0002188 100.3163 259.8215 13.16595551 68591
ONEWEB-0577             
1 56066U 23043W   24212.43540660  .00000096  00000+0  21809-3 0  9991
2 56066  87.9123   5.4941 0002598  88.9056 271.2372 13.16595284 68628
